{
    "links": {
        "self": "http://www.neowsapp.com/rest/v1/neo/3781978?api_key=iIulBulltgU6a56xZRHN4H3l9WmuAYTsLGpBGhQ2"
    },
    "id": "3781978",
    "neo_reference_id": "3781978",
    "name": "(2017 SU19)",
    "designation": "2017 SU19",
    "nasa_jpl_url": "http://ssd.jpl.nasa.gov/sbdb.cgi?sstr=3781978",
    "absolute_magnitude_h": 22.9,
    "estimated_diameter": {
        "kilometers": {
            "estimated_diameter_min": 0.0699125232,
            "estimated_diameter_max": 0.1563291544
        },
        "meters": {
            "estimated_diameter_min": 69.9125232246,
            "estimated_diameter_max": 156.3291544087
        },
        "miles": {
            "estimated_diameter_min": 0.0434416145,
            "estimated_diameter_max": 0.097138403
        },
        "feet": {
            "estimated_diameter_min": 229.3718026961,
            "estimated_diameter_max": 512.8909429502
        }
    },
    "is_potentially_hazardous_asteroid": false,
    "close_approach_data": [
        {
            "close_approach_date": "2017-10-19",
            "close_approach_date_full": "2017-Oct-19 19:19",
            "epoch_date_close_approach": 1508440740000,
            "relative_velocity": {
                "kilometers_per_second": "3.2268082734",
                "kilometers_per_hour": "11616.5097843315",
                "miles_per_hour": "7218.0474268253"
            },
            "miss_distance": {
                "astronomical": "0.2749423884",
                "lunar": "106.9525890876",
                "kilometers": "41130795.677352708",
                "miles": "25557491.3172870504"
            },
            "orbiting_body": "Earth"
        }
    ],
    "orbital_data": {
        "orbit_id": "5",
        "orbit_determination_date": "2017-11-13 06:20:39",
        "first_observation_date": "2017-09-23",
        "last_observation_date": "2017-11-12",
        "data_arc_in_days": 50,
        "observations_used": 35,
        "orbit_uncertainty": "6",
        "minimum_orbit_intersection": ".248961",
        "jupiter_tisserand_invariant": "3.407",
        "epoch_osculation": "2459000.5",
        "eccentricity": ".4695029735284899",
        "semi_major_axis": "2.337135131574488",
        "inclination": "3.850456606917725",
        "ascending_node_longitude": "160.8502809850959",
        "orbital_period": "1305.041019552143",
        "perihelion_distance": "1.239843237762367",
        "perihelion_argument": "224.6709533085204",
        "aphelion_distance": "3.434427025386608",
        "perihelion_time": "2459342.838511284314",
        "mean_anomaly": "265.5647583363727",
        "mean_motion": ".2758533981740611",
        "equinox": "J2000",
        "orbit_class": {
            "orbit_class_type": "AMO",
            "orbit_class_description": "Near-Earth asteroid orbits similar to that of 1221 Amor",
            "orbit_class_range": "1.017 AU < q (perihelion) < 1.3 AU"
        }
    },
    "is_sentry_object": false
}